COMMENT,ORIGINATOR,NORAD_CAT_ID,OBJECT_NAME,OBJECT_TYPE,CLASSIFICATION_TYPE,INTLDES,EPOCH,EPOCH_MICROSECONDS,MEAN_MOTION,ECCENTRICITY,INCLINATION,RA_OF_ASC_NODE,ARG_OF_PERICENTER,MEAN_ANOMALY,EPHEMERIS_TYPE,ELEMENT_SET_NO,REV_AT_EPOCH,BSTAR,MEAN_MOTION_DOT,MEAN_MOTION_DDOT,FILE,TLE_LINE0,TLE_LINE1,TLE_LINE2,OBJECT_ID,OBJECT_NUMBER,SEMIMAJOR_AXIS,PERIOD,APOGEE,PERIGEE,DECAYED
"GENERATED VIA SPACETRACK.ORG API","18 SPCS","48899","SPACEBEE-110","PAYLOAD","U","21059W","2023-11-16 16:02:01","511520","15.50601008","0.0002244","97.61","104.2273","74.3261","285.8237","0","999","13289","0.0013177","0.00075952","0","4092636","0 SPACEBEE-110","1 48899U 21059W   23320.66807305  .00075952  00000-0  13177-2 0  9999","2 48899  97.6100 104.2273 0002244  74.3261 285.8237 15.50601008132891","2021-059W","48899","6793.107","92.867","416.497","413.448","0"
"GENERATED VIA SPACETRACK.ORG API","18 SPCS","48899","SPACEBEE-110","PAYLOAD","U","21059W","2023-11-16 20:40:48","411552","15.50629637","0.0002246","97.6099","104.4319","72.3723","287.7773","0","999","13292","0.0013318","0.00076853","0","4092721","0 SPACEBEE-110","1 48899U 21059W   23320.86167143  .00076853  00000-0  13318-2 0  9998","2 48899  97.6099 104.4319 0002246  72.3723 287.7773 15.50629637132922","2021-059W","48899","6793.024","92.866","416.414","413.363","0"
"GENERATED VIA SPACETRACK.ORG API","18 SPCS","48899","SPACEBEE-110","PAYLOAD","U","21059W","2023-11-17 09:04:11","980416","15.50701898","0.0002239","97.6097","104.9768","71.823","288.3264","0","999","13300","0.0011871","0.00068595","0","4093899","0 SPACEBEE-110","1 48899U 21059W   23321.37791644  .00068595  00000-0  11871-2 0  9990","2 48899  97.6097 104.9768 0002239  71.8230 288.3264 15.50701898133004","2021-059W","48899","6792.813","92.861","416.198","413.157","0"
"GENERATED VIA SPACETRACK.ORG API","18 SPCS","48899","SPACEBEE-110","PAYLOAD","U","21059W","2023-11-17 09:04:11","980416","15.50701898","0.0002239","97.6097","104.9768","71.823","288.3264","0","999","13300","0.0011871","0.00068595","0","4094299","0 SPACEBEE-110","1 48899U 21059W   23321.37791644  .00068595  00000-0  11871-2 0  9990","2 48899  97.6097 104.9768 0002239  71.8230 288.3264 15.50701898133004","2021-059W","48899","6792.813","92.861","416.198","413.157","0"
"GENERATED VIA SPACETRACK.ORG API","18 SPCS","48899","SPACEBEE-110","PAYLOAD","U","21059W","2023-11-18 03:39:13","741632","15.50795059","0.0002225","97.6098","105.7952","67.2176","292.9311","0","999","13312","0.001105","0.00064018","0","4094814","0 SPACEBEE-110","1 48899U 21059W   23322.15224238  .00064018  00000-0  11050-2 0  9992","2 48899  97.6098 105.7952 0002225  67.2176 292.9311 15.50795059133121","2021-059W","48899","6792.540","92.856","415.917","412.894","0"
"GENERATED VIA SPACETRACK.ORG API","18 SPCS","48899","SPACEBEE-110","PAYLOAD","U","21059W","2023-11-18 08:17:58","511040","15.50820872","0.000222","97.61","105.9998","66.6615","293.4869","0","999","13315","0.00097746","0.00056616","0","4095448","0 SPACEBEE-110","1 48899U 21059W   23322.34581610  .00056616  00000-0  97746-3 0  9995","2 48899  97.6100 105.9998 0002220  66.6615 293.4869 15.50820872133152","2021-059W","48899","6792.465","92.854","415.838","412.822","0"
"GENERATED VIA SPACETRACK.ORG API","18 SPCS","48899","SPACEBEE-110","PAYLOAD","U","21059W","2023-11-19 09:04:33","96576","15.50951622","0.0002315","97.6092","107.0908","62.8899","297.2588","0","999","13331","0.0011589","0.00067549","0","4096830","0 SPACEBEE-110","1 48899U 21059W   23323.37816084  .00067549  00000-0  11589-2 0  9992","2 48899  97.6092 107.0908 0002315  62.8899 297.2588 15.50951622133319","2021-059W","48899","6792.083","92.846","415.521","412.376","0"
"GENERATED VIA SPACETRACK.ORG API","18 SPCS","48899","SPACEBEE-110","PAYLOAD","U","21059W","2023-11-19 09:04:33","96576","15.50951622","0.0002315","97.6092","107.0908","62.8899","297.2588","0","999","13331","0.0011589","0.00067549","0","4096886","0 SPACEBEE-110","1 48899U 21059W   23323.37816084  .00067549  00000-0  11589-2 0  9992","2 48899  97.6092 107.0908 0002315  62.8899 297.2588 15.50951622133319","2021-059W","48899","6792.083","92.846","415.521","412.376","0"
"GENERATED VIA SPACETRACK.ORG API","18 SPCS","48899","SPACEBEE-110","PAYLOAD","U","21059W","2023-11-19 21:27:47","553696","15.51013718","0.0002403","97.6091","107.6371","57.5709","302.5775","0","999","13339","0.0010136","0.00059135","0","4097440","0 SPACEBEE-110","1 48899U 21059W   23323.89430039  .00059135  00000-0  10136-2 0  9990","2 48899  97.6091 107.6371 0002403  57.5709 302.5775 15.51013718133399","2021-059W","48899","6791.902","92.843","415.399","412.135","0"
"GENERATED VIA SPACETRACK.ORG API","18 SPCS","48899","SPACEBEE-110","PAYLOAD","U","21059W","2023-11-20 08:18:05","887008","15.51086542","0.0002386","97.6091","108.114","57.2731","302.8751","0","999","13346","0.001135","0.00066462","0","4098394","0 SPACEBEE-110","1 48899U 21059W   23324.34590147  .00066462  00000-0  11350-2 0  9998","2 48899  97.6091 108.1140 0002386  57.2731 302.8751 15.51086542133461","2021-059W","48899","6791.689","92.838","415.175","411.934","0"
"GENERATED VIA SPACETRACK.ORG API","18 SPCS","48899","SPACEBEE-110","PAYLOAD","U","21059W","2023-11-20 16:02:35","105568","15.51133052","0.0002436","97.6089","108.4552","56.1673","303.981","0","999","13351","0.0012765","0.00074965","0","4098638","0 SPACEBEE-110","1 48899U 21059W   23324.66846187  .00074965  00000-0  12765-2 0  9999","2 48899  97.6089 108.4552 0002436  56.1673 303.9810 15.51133052133510","2021-059W","48899","6791.554","92.835","415.073","411.764","0"
"GENERATED VIA SPACETRACK.ORG API","18 SPCS","48899","SPACEBEE-110","PAYLOAD","U","21059W","2023-11-20 22:14:09","837600","15.51174413","0.0002456","97.6087","108.728","54.281","305.8669","0","999","13355","0.0012346","0.00072586","0","4099015","0 SPACEBEE-110","1 48899U 21059W   23324.92650275  .00072586  00000-0  12346-2 0  9991","2 48899  97.6087 108.7280 0002456  54.2810 305.8669 15.51174413133556","2021-059W","48899","6791.433","92.833","414.966","411.630","0"
"GENERATED VIA SPACETRACK.ORG API","18 SPCS","48899","SPACEBEE-110","PAYLOAD","U","21059W","2023-11-21 09:04:24","168864","15.51248085","0.000244","97.6087","109.2051","53.654","306.4937","0","999","13362","0.0012294","0.00072468","0","4100115","0 SPACEBEE-110","1 48899U 21059W   23325.37805751  .00072468  00000-0  12294-2 0  9993","2 48899  97.6087 109.2051 0002440  53.6540 306.4937 15.51248085133624","2021-059W","48899","6791.218","92.828","414.740","411.426","0"
"GENERATED VIA SPACETRACK.ORG API","18 SPCS","48899","SPACEBEE-110","PAYLOAD","U","21059W","2023-11-21 21:27:29","391552","15.51358209","0.0002514","97.6084","109.7512","48.7682","311.3785","0","999","13370","0.0017894","0.00106393","0","4100926","0 SPACEBEE-110","1 48899U 21059W   23325.89409018  .00106393  00000-0  17894-2 0  9992","2 48899  97.6084 109.7512 0002514  48.7682 311.3785 15.51358209133707","2021-059W","48899","6790.897","92.822","414.469","411.054","0"
"GENERATED VIA SPACETRACK.ORG API","18 SPCS","48899","SPACEBEE-110","PAYLOAD","U","21059W","2023-11-22 08:17:38","703840","15.51466589","0.0002502","97.6084","110.2283","48.5837","311.5629","0","999","13377","0.0018857","0.00112645","0","4101665","0 SPACEBEE-110","1 48899U 21059W   23326.34558685  .00112645  00000-0  18857-2 0  9995","2 48899  97.6084 110.2283 0002502  48.5837 311.5629 15.51466589133773","2021-059W","48899","6790.580","92.815","414.144","410.746","0"
"GENERATED VIA SPACETRACK.ORG API","18 SPCS","48899","SPACEBEE-110","PAYLOAD","U","21059W","2023-11-22 08:17:38","703840","15.51466589","0.0002502","97.6084","110.2283","48.5837","311.5629","0","999","13377","0.0018857","0.00112645","0","4101817","0 SPACEBEE-110","1 48899U 21059W   23326.34558685  .00112645  00000-0  18857-2 0  9995","2 48899  97.6084 110.2283 0002502  48.5837 311.5629 15.51466589133773","2021-059W","48899","6790.580","92.815","414.144","410.746","0"
"GENERATED VIA SPACETRACK.ORG API","18 SPCS","48899","SPACEBEE-110","PAYLOAD","U","21059W","2023-11-23 09:03:32","531040","15.51715716","0.0002575","97.6078","111.3198","43.1266","317.0187","0","999","13393","0.0018579","0.00111962","0","4103443","0 SPACEBEE-110","1 48899U 21059W   23327.37745985  .00111962  00000-0  18579-2 0  9992","2 48899  97.6078 111.3198 0002575  43.1266 317.0187 15.51715716133937","2021-059W","48899","6789.853","92.801","413.467","409.970","0"
"GENERATED VIA SPACETRACK.ORG API","18 SPCS","48899","SPACEBEE-110","PAYLOAD","U","21059W","2023-11-23 09:03:32","531040","15.51715716","0.0002575","97.6078","111.3198","43.1266","317.0187","0","999","13393","0.0018579","0.00111962","0","4103560","0 SPACEBEE-110","1 48899U 21059W   23327.37745985  .00111962  00000-0  18579-2 0  9992","2 48899  97.6078 111.3198 0002575  43.1266 317.0187 15.51715716133937","2021-059W","48899","6789.853","92.801","413.467","409.970","0"
"GENERATED VIA SPACETRACK.ORG API","18 SPCS","48899","SPACEBEE-110","PAYLOAD","U","21059W","2023-11-23 21:26:24","256320","15.51828894","0.0002729","97.6078","111.8661","36.4027","323.741","0","999","13401","0.0017171","0.00103781","0","4104120","0 SPACEBEE-110","1 48899U 21059W   23327.89333630  .00103781  00000-0  17171-2 0  9996","2 48899  97.6078 111.8661 0002729  36.4027 323.7410 15.51828894134013","2021-059W","48899","6789.523","92.794","413.241","409.535","0"
"GENERATED VIA SPACETRACK.ORG API","18 SPCS","48899","SPACEBEE-110","PAYLOAD","U","21059W","2023-11-24 08:16:21","902016","15.51925524","0.0002769","97.6085","112.3436","34.5096","325.6335","0","999","13408","0.0016913","0.00102557","0","4105170","0 SPACEBEE-110","1 48899U 21059W   23328.34469794  .00102557  00000-0  16913-2 0  9991","2 48899  97.6085 112.3436 0002769  34.5096 325.6335 15.51925524134088","2021-059W","48899","6789.242","92.788","412.986","409.227","0"
